[{"OBJECT_NAME":"STARLINK-34239","OBJECT_ID":"2025-144E","EPOCH":"2025-08-02T20:00:01.000224","MEAN_MOTION":15.39591224,"ECCENTRICITY":0.0001218,"INCLINATION":53.1605,"RA_OF_ASC_NODE":118.8562,"ARG_OF_PERICENTER":96.6486,"MEAN_ANOMALY":1.5639,"EPHEMERIS_TYPE":0,"CLASSIFICATION_TYPE":"U","NORAD_CAT_ID":64728,"ELEMENT_SET_NO":999,"REV_AT_EPOCH":618,"BSTAR":0.0004448,"MEAN_MOTION_DOT":0.00017416,"MEAN_MOTION_DDOT":0},{"OBJECT_NAME":"STARLINK-34588","OBJECT_ID":"2025-144F","EPOCH":"2025-08-02T01:40:07.086144","MEAN_MOTION":15.39662798,"ECCENTRICITY":7.64e-5,"INCLINATION":53.1599,"RA_OF_ASC_NODE":122.8186,"ARG_OF_PERICENTER":111.1388,"MEAN_ANOMALY":248.9699,"EPHEMERIS_TYPE":0,"CLASSIFICATION_TYPE":"U","NORAD_CAT_ID":64729,"ELEMENT_SET_NO":999,"REV_AT_EPOCH":606,"BSTAR":0.0012732,"MEAN_MOTION_DOT":0.0005094,"MEAN_MOTION_DDOT":0},{"OBJECT_NAME":"STARLINK-34606","OBJECT_ID":"2025-144G","EPOCH":"2025-08-02T06:20:03.948576","MEAN_MOTION":15.39653942,"ECCENTRICITY":0.000122,"INCLINATION":53.1603,"RA_OF_ASC_NODE":121.8978,"ARG_OF_PERICENTER":72.9956,"MEAN_ANOMALY":287.1183,"EPHEMERIS_TYPE":0,"CLASSIFICATION_TYPE":"U","NORAD_CAT_ID":64730,"ELEMENT_SET_NO":999,"REV_AT_EPOCH":609,"BSTAR":0.0010447,"MEAN_MOTION_DOT":0.00041663,"MEAN_MOTION_DDOT":0},{"OBJECT_NAME":"STARLINK-34552","OBJECT_ID":"2025-144H","EPOCH":"2025-08-01T06:12:06.524640","MEAN_MOTION":15.49344633,"ECCENTRICITY":0.0002857,"INCLINATION":53.1605,"RA_OF_ASC_NODE":126.2848,"ARG_OF_PERICENTER":153.4316,"MEAN_ANOMALY":206.684,"EPHEMERIS_TYPE":0,"CLASSIFICATION_TYPE":"U","NORAD_CAT_ID":64731,"ELEMENT_SET_NO":999,"REV_AT_EPOCH":594,"BSTAR":0.0012651,"MEAN_MOTION_DOT":0.00070645,"MEAN_MOTION_DDOT":0},{"OBJECT_NAME":"STARLINK-34596","OBJECT_ID":"2025-144J","EPOCH":"2025-08-02T14:00:01.000224","MEAN_MOTION":15.39576659,"ECCENTRICITY":0.00012,"INCLINATION":53.1595,"RA_OF_ASC_NODE":120.2389,"ARG_OF_PERICENTER":80.6106,"MEAN_ANOMALY":328.1453,"EPHEMERIS_TYPE":0,"CLASSIFICATION_TYPE":"U","NORAD_CAT_ID":64732,"ELEMENT_SET_NO":999,"REV_AT_EPOCH":609,"BSTAR":0.001679,"MEAN_MOTION_DOT":0.00067257,"MEAN_MOTION_DDOT":0},{"OBJECT_NAME":"STARLINK-34556","OBJECT_ID":"2025-144K","EPOCH":"2025-08-02T14:00:01.000224","MEAN_MOTION":15.39574666,"ECCENTRICITY":0.000119,"INCLINATION":53.1593,"RA_OF_ASC_NODE":120.1872,"ARG_OF_PERICENTER":95.2168,"MEAN_ANOMALY":339.2275,"EPHEMERIS_TYPE":0,"CLASSIFICATION_TYPE":"U","NORAD_CAT_ID":64733,"ELEMENT_SET_NO":999,"REV_AT_EPOCH":604,"BSTAR":0.001715,"MEAN_MOTION_DOT":0.00068717,"MEAN_MOTION_DDOT":0},{"OBJECT_NAME":"STARLINK-34591","OBJECT_ID":"2025-144L","EPOCH":"2025-08-02T17:07:42.720096","MEAN_MOTION":15.39647124,"ECCENTRICITY":9.43e-5,"INCLINATION":53.159,"RA_OF_ASC_NODE":119.7272,"ARG_OF_PERICENTER":85.0823,"MEAN_ANOMALY":275.0289,"EPHEMERIS_TYPE":0,"CLASSIFICATION_TYPE":"U","NORAD_CAT_ID":64734,"ELEMENT_SET_NO":999,"REV_AT_EPOCH":614,"BSTAR":0.00085063,"MEAN_MOTION_DOT":0.00033806,"MEAN_MOTION_DDOT":0},{"OBJECT_NAME":"STARLINK-34587","OBJECT_ID":"2025-144M","EPOCH":"2025-08-02T22:00:01.999584","MEAN_MOTION":15.39618515,"ECCENTRICITY":0.000126,"INCLINATION":53.1598,"RA_OF_ASC_NODE":118.5142,"ARG_OF_PERICENTER":81.7641,"MEAN_ANOMALY":92.8648,"EPHEMERIS_TYPE":0,"CLASSIFICATION_TYPE":"U","NORAD_CAT_ID":64735,"ELEMENT_SET_NO":999,"REV_AT_EPOCH":614,"BSTAR":-2.4018e-5,"MEAN_MOTION_DOT":-1.36e-5,"MEAN_MOTION_DDOT":0},{"OBJECT_NAME":"STARLINK-34130","OBJECT_ID":"2025-144N","EPOCH":"2025-08-02T22:00:01.999584","MEAN_MOTION":15.40212779,"ECCENTRICITY":0.0001376,"INCLINATION":53.1605,"RA_OF_ASC_NODE":118.4121,"ARG_OF_PERICENTER":63.2359,"MEAN_ANOMALY":162.6565,"EPHEMERIS_TYPE":0,"CLASSIFICATION_TYPE":"U","NORAD_CAT_ID":64736,"ELEMENT_SET_NO":999,"REV_AT_EPOCH":619,"BSTAR":-0.024633,"MEAN_MOTION_DOT":-0.00922036,"MEAN_MOTION_DDOT":0},{"OBJECT_NAME":"STARLINK-34619","OBJECT_ID":"2025-144P","EPOCH":"2025-08-02T22:00:01.999584","MEAN_MOTION":15.45676199,"ECCENTRICITY":0.0001411,"INCLINATION":53.161,"RA_OF_ASC_NODE":118.3457,"ARG_OF_PERICENTER":91.4457,"MEAN_ANOMALY":167.7001,"EPHEMERIS_TYPE":0,"CLASSIFICATION_TYPE":"U","NORAD_CAT_ID":64737,"ELEMENT_SET_NO":999,"REV_AT_EPOCH":619,"BSTAR":-0.037366,"MEAN_MOTION_DOT":-0.01641236,"MEAN_MOTION_DDOT":0},{"OBJECT_NAME":"STARLINK-34597","OBJECT_ID":"2025-144Q","EPOCH":"2025-08-02T20:07:30.602496","MEAN_MOTION":15.39630341,"ECCENTRICITY":0.0001156,"INCLINATION":53.1591,"RA_OF_ASC_NODE":119.0833,"ARG_OF_PERICENTER":98.026,"MEAN_ANOMALY":262.0876,"EPHEMERIS_TYPE":0,"CLASSIFICATION_TYPE":"U","NORAD_CAT_ID":64738,"ELEMENT_SET_NO":999,"REV_AT_EPOCH":616,"BSTAR":0.0011345,"MEAN_MOTION_DOT":0.00045265,"MEAN_MOTION_DDOT":0},{"OBJECT_NAME":"STARLINK-34471","OBJECT_ID":"2025-144R","EPOCH":"2025-08-02T22:00:01.999584","MEAN_MOTION":15.39624872,"ECCENTRICITY":0.0001297,"INCLINATION":53.1598,"RA_OF_ASC_NODE":118.5096,"ARG_OF_PERICENTER":107.5491,"MEAN_ANOMALY":68.807,"EPHEMERIS_TYPE":0,"CLASSIFICATION_TYPE":"U","NORAD_CAT_ID":64739,"ELEMENT_SET_NO":999,"REV_AT_EPOCH":613,"BSTAR":0.00056576,"MEAN_MOTION_DOT":0.000223,"MEAN_MOTION_DDOT":0},{"OBJECT_NAME":"STARLINK-34208","OBJECT_ID":"2025-144S","EPOCH":"2025-08-02T14:00:01.000224","MEAN_MOTION":15.3957369,"ECCENTRICITY":0.0001019,"INCLINATION":53.1592,"RA_OF_ASC_NODE":120.1818,"ARG_OF_PERICENTER":101.9282,"MEAN_ANOMALY":334.4145,"EPHEMERIS_TYPE":0,"CLASSIFICATION_TYPE":"U","NORAD_CAT_ID":64740,"ELEMENT_SET_NO":999,"REV_AT_EPOCH":604,"BSTAR":0.0017169,"MEAN_MOTION_DOT":0.00068792,"MEAN_MOTION_DDOT":0},{"OBJECT_NAME":"STARLINK-34205","OBJECT_ID":"2025-144T","EPOCH":"2025-08-02T14:00:01.000224","MEAN_MOTION":15.39579225,"ECCENTRICITY":0.0001095,"INCLINATION":53.1594,"RA_OF_ASC_NODE":120.2329,"ARG_OF_PERICENTER":97.5044,"MEAN_ANOMALY":313.0736,"EPHEMERIS_TYPE":0,"CLASSIFICATION_TYPE":"U","NORAD_CAT_ID":64741,"ELEMENT_SET_NO":999,"REV_AT_EPOCH":604,"BSTAR":0.0018308,"MEAN_MOTION_DOT":0.0007344,"MEAN_MOTION_DDOT":0},{"OBJECT_NAME":"STARLINK-34607","OBJECT_ID":"2025-144U","EPOCH":"2025-08-02T14:00:01.000224","MEAN_MOTION":15.39577195,"ECCENTRICITY":9.17e-5,"INCLINATION":53.1592,"RA_OF_ASC_NODE":120.1293,"ARG_OF_PERICENTER":111.4704,"MEAN_ANOMALY":350.6102,"EPHEMERIS_TYPE":0,"CLASSIFICATION_TYPE":"U","NORAD_CAT_ID":64742,"ELEMENT_SET_NO":999,"REV_AT_EPOCH":604,"BSTAR":0.001826,"MEAN_MOTION_DOT":0.0007324,"MEAN_MOTION_DDOT":0},{"OBJECT_NAME":"STARLINK-34236","OBJECT_ID":"2025-144V","EPOCH":"2025-08-02T22:00:01.999584","MEAN_MOTION":15.39610975,"ECCENTRICITY":0.0001167,"INCLINATION":53.1601,"RA_OF_ASC_NODE":118.4575,"ARG_OF_PERICENTER":93.2768,"MEAN_ANOMALY":108.9546,"EPHEMERIS_TYPE":0,"CLASSIFICATION_TYPE":"U","NORAD_CAT_ID":64743,"ELEMENT_SET_NO":999,"REV_AT_EPOCH":619,"BSTAR":6.4529e-5,"MEAN_MOTION_DOT":2.182e-5,"MEAN_MOTION_DDOT":0},{"OBJECT_NAME":"STARLINK-34185","OBJECT_ID":"2025-144W","EPOCH":"2025-08-02T14:00:01.000224","MEAN_MOTION":15.43015344,"ECCENTRICITY":0.0001573,"INCLINATION":53.1595,"RA_OF_ASC_NODE":119.9371,"ARG_OF_PERICENTER":78.5486,"MEAN_ANOMALY":120.5842,"EPHEMERIS_TYPE":0,"CLASSIFICATION_TYPE":"U","NORAD_CAT_ID":64744,"ELEMENT_SET_NO":999,"REV_AT_EPOCH":604,"BSTAR":-0.038126,"MEAN_MOTION_DOT":-0.01539657,"MEAN_MOTION_DDOT":0},{"OBJECT_NAME":"STARLINK-34581","OBJECT_ID":"2025-144X","EPOCH":"2025-08-02T22:00:01.999584","MEAN_MOTION":15.44290293,"ECCENTRICITY":0.0001587,"INCLINATION":53.1604,"RA_OF_ASC_NODE":118.3248,"ARG_OF_PERICENTER":91.8288,"MEAN_ANOMALY":176.6055,"EPHEMERIS_TYPE":0,"CLASSIFICATION_TYPE":"U","NORAD_CAT_ID":64745,"ELEMENT_SET_NO":999,"REV_AT_EPOCH":619,"BSTAR":-0.038165,"MEAN_MOTION_DOT":-0.01602639,"MEAN_MOTION_DDOT":0},{"OBJECT_NAME":"STARLINK-34592","OBJECT_ID":"2025-144Y","EPOCH":"2025-08-02T22:00:01.999584","MEAN_MOTION":15.42442893,"ECCENTRICITY":9.96e-5,"INCLINATION":53.1603,"RA_OF_ASC_NODE":118.394,"ARG_OF_PERICENTER":89.1446,"MEAN_ANOMALY":144.7753,"EPHEMERIS_TYPE":0,"CLASSIFICATION_TYPE":"U","NORAD_CAT_ID":64746,"ELEMENT_SET_NO":999,"REV_AT_EPOCH":619,"BSTAR":0.00087885,"MEAN_MOTION_DOT":0.00038388,"MEAN_MOTION_DDOT":0},{"OBJECT_NAME":"STARLINK-34589","OBJECT_ID":"2025-144Z","EPOCH":"2025-08-02T22:00:01.999584","MEAN_MOTION":15.5526557,"ECCENTRICITY":0.0001363,"INCLINATION":53.1594,"RA_OF_ASC_NODE":117.9845,"ARG_OF_PERICENTER":202.14,"MEAN_ANOMALY":236.6161,"EPHEMERIS_TYPE":0,"CLASSIFICATION_TYPE":"U","NORAD_CAT_ID":64747,"ELEMENT_SET_NO":999,"REV_AT_EPOCH":620,"BSTAR":0.0033947,"MEAN_MOTION_DOT":0.00240697,"MEAN_MOTION_DDOT":0},{"OBJECT_NAME":"STARLINK-34536","OBJECT_ID":"2025-144AA","EPOCH":"2025-08-02T17:40:13.068768","MEAN_MOTION":15.49378366,"ECCENTRICITY":0.0001689,"INCLINATION":53.1606,"RA_OF_ASC_NODE":119.1556,"ARG_OF_PERICENTER":60.6917,"MEAN_ANOMALY":299.4261,"EPHEMERIS_TYPE":0,"CLASSIFICATION_TYPE":"U","NORAD_CAT_ID":64748,"ELEMENT_SET_NO":999,"REV_AT_EPOCH":617,"BSTAR":0.0016416,"MEAN_MOTION_DOT":0.00092161,"MEAN_MOTION_DDOT":0},{"OBJECT_NAME":"STARLINK-34595","OBJECT_ID":"2025-144AB","EPOCH":"2025-08-02T17:39:13.675680","MEAN_MOTION":15.49358281,"ECCENTRICITY":0.000135,"INCLINATION":53.1605,"RA_OF_ASC_NODE":119.1495,"ARG_OF_PERICENTER":75.8864,"MEAN_ANOMALY":284.2295,"EPHEMERIS_TYPE":0,"CLASSIFICATION_TYPE":"U","NORAD_CAT_ID":64749,"ELEMENT_SET_NO":999,"REV_AT_EPOCH":617,"BSTAR":0.0018739,"MEAN_MOTION_DOT":0.0010537,"MEAN_MOTION_DDOT":0},{"OBJECT_NAME":"STARLINK-34531","OBJECT_ID":"2025-144AC","EPOCH":"2025-08-02T01:33:25.753824","MEAN_MOTION":15.39627321,"ECCENTRICITY":0.0001046,"INCLINATION":53.1601,"RA_OF_ASC_NODE":122.7809,"ARG_OF_PERICENTER":138.9387,"MEAN_ANOMALY":221.1696,"EPHEMERIS_TYPE":0,"CLASSIFICATION_TYPE":"U","NORAD_CAT_ID":64750,"ELEMENT_SET_NO":999,"REV_AT_EPOCH":606,"BSTAR":2.3159e-5,"MEAN_MOTION_DOT":5.27e-6,"MEAN_MOTION_DDOT":0}]
